[{"CCSDS_OMM_VERS":"2.0","COMMENT":"GENERATED VIA SPACE-TRACK.ORG API","CREATION_DATE":"2020-05-24T22:16:09","ORIGINATOR":"18 SPCS","OBJECT_NAME":"ONEWEB-0007","OBJECT_ID":"2019-010D","CENTER_NAME":"EARTH","REF_FRAME":"TEME","TIME_SYSTEM":"UTC","MEAN_ELEMENT_THEORY":"SGP4","EPOCH":"2020-05-24T16:00:00.999936","MEAN_MOTION":"13.21835586","ECCENTRICITY":"0.00019640","INCLINATION":"87.9172","RA_OF_ASC_NODE":"339.1370","ARG_OF_PERICENTER":"84.5246","MEAN_ANOMALY":"337.5400","EPHEMERIS_TYPE":"0","CLASSIFICATION_TYPE":"U","NORAD_CAT_ID":"44060","ELEMENT_SET_NO":"999","REV_AT_EPOCH":"5991","BSTAR":"-0.10892000000000","MEAN_MOTION_DOT":"-0.00044756","MEAN_MOTION_DDOT":"0.0000000000000","SEMIMAJOR_AXIS":"7555.853","PERIOD":"108.939","APOAPSIS":"1179.202","PERIAPSIS":"1176.234","OBJECT_TYPE":"PAYLOAD","RCS_SIZE":"LARGE","COUNTRY_CODE":"UK","LAUNCH_DATE":"2019-02-27","SITE":"FRGUI","DECAY_DATE":null,"FILE":"2753917","GP_ID":"154490564","TLE_LINE0":"0 ONEWEB-0007","TLE_LINE1":"1 44060U 19010D   20145.66667824 -.00044756  00000-0 -10892+0 0  9999","TLE_LINE2":"2 44060  87.9172 339.1370 0001964  84.5246 337.5400 13.21835586 59913"},{"CCSDS_OMM_VERS":"2.0","COMMENT":"GENERATED VIA SPACE-TRACK.ORG API","CREATION_DATE":"2020-05-25T14:16:08","ORIGINATOR":"18 SPCS","OBJECT_NAME":"ONEWEB-0007","OBJECT_ID":"2019-010D","CENTER_NAME":"EARTH","REF_FRAME":"TEME","TIME_SYSTEM":"UTC","MEAN_ELEMENT_THEORY":"SGP4","EPOCH":"2020-05-25T14:00:01.000224","MEAN_MOTION":"13.21828383","ECCENTRICITY":"0.00019660","INCLINATION":"87.9170","RA_OF_ASC_NODE":"338.9538","ARG_OF_PERICENTER":"85.0071","MEAN_ANOMALY":"16.5318","EPHEMERIS_TYPE":"0","CLASSIFICATION_TYPE":"U","NORAD_CAT_ID":"44060","ELEMENT_SET_NO":"999","REV_AT_EPOCH":"6003","BSTAR":"-0.04040500000000","MEAN_MOTION_DOT":"-0.00016644","MEAN_MOTION_DDOT":"0.0000000000000","SEMIMAJOR_AXIS":"7555.881","PERIOD":"108.940","APOAPSIS":"1179.231","PERIAPSIS":"1176.260","OBJECT_TYPE":"PAYLOAD","RCS_SIZE":"LARGE","COUNTRY_CODE":"UK","LAUNCH_DATE":"2019-02-27","SITE":"FRGUI","DECAY_DATE":null,"FILE":"2754040","GP_ID":"154513160","TLE_LINE0":"0 ONEWEB-0007","TLE_LINE1":"1 44060U 19010D   20146.58334491 -.00016644  00000-0 -40405-1 0  9992","TLE_LINE2":"2 44060  87.9170 338.9538 0001966  85.0071  16.5318 13.21828383 60032"},{"CCSDS_OMM_VERS":"2.0","COMMENT":"GENERATED VIA SPACE-TRACK.ORG API","CREATION_DATE":"2020-05-26T02:41:43","ORIGINATOR":"18 SPCS","OBJECT_NAME":"ONEWEB-0007","OBJECT_ID":"2019-010D","CENTER_NAME":"EARTH","REF_FRAME":"TEME","TIME_SYSTEM":"UTC","MEAN_ELEMENT_THEORY":"SGP4","EPOCH":"2020-05-25T20:00:01.000224","MEAN_MOTION":"13.21800077","ECCENTRICITY":"0.00019450","INCLINATION":"87.9171","RA_OF_ASC_NODE":"338.9032","ARG_OF_PERICENTER":"84.0421","MEAN_ANOMALY":"126.4600","EPHEMERIS_TYPE":"0","CLASSIFICATION_TYPE":"U","NORAD_CAT_ID":"44060","ELEMENT_SET_NO":"999","REV_AT_EPOCH":"172","BSTAR":"0.04216600000000","MEAN_MOTION_DOT":"0.00017455","MEAN_MOTION_DDOT":"0.0000000000000","SEMIMAJOR_AXIS":"7555.989","PERIOD":"108.942","APOAPSIS":"1179.323","PERIAPSIS":"1176.384","OBJECT_TYPE":"PAYLOAD","RCS_SIZE":"LARGE","COUNTRY_CODE":"UK","LAUNCH_DATE":"2019-02-27","SITE":"FRGUI","DECAY_DATE":null,"FILE":"2754183","GP_ID":"154554449","TLE_LINE0":"0 ONEWEB-0007","TLE_LINE1":"1 44060U 19010D   20146.83334491 +.00017455 +00000-0 +42166-1 0  9995","TLE_LINE2":"2 44060 087.9171 338.9032 0001945 084.0421 126.4600 13.21800077001723"},{"CCSDS_OMM_VERS":"2.0","COMMENT":"GENERATED VIA SPACE-TRACK.ORG API","CREATION_DATE":"2020-05-26T20:07:17","ORIGINATOR":"18 SPCS","OBJECT_NAME":"ONEWEB-0007","OBJECT_ID":"2019-010D","CENTER_NAME":"EARTH","REF_FRAME":"TEME","TIME_SYSTEM":"UTC","MEAN_ELEMENT_THEORY":"SGP4","EPOCH":"2020-05-26T14:00:01.000224","MEAN_MOTION":"13.21828845","ECCENTRICITY":"0.00019610","INCLINATION":"87.9171","RA_OF_ASC_NODE":"338.7536","ARG_OF_PERICENTER":"85.6497","MEAN_ANOMALY":"91.6826","EPHEMERIS_TYPE":"0","CLASSIFICATION_TYPE":"U","NORAD_CAT_ID":"44060","ELEMENT_SET_NO":"999","REV_AT_EPOCH":"6016","BSTAR":"-0.05770400000000","MEAN_MOTION_DOT":"-0.00023757","MEAN_MOTION_DDOT":"0.0000000000000","SEMIMAJOR_AXIS":"7555.879","PERIOD":"108.939","APOAPSIS":"1179.226","PERIAPSIS":"1176.262","OBJECT_TYPE":"PAYLOAD","RCS_SIZE":"LARGE","COUNTRY_CODE":"UK","LAUNCH_DATE":"2019-02-27","SITE":"FRGUI","DECAY_DATE":null,"FILE":"2754331","GP_ID":"154576984","TLE_LINE0":"0 ONEWEB-0007","TLE_LINE1":"1 44060U 19010D   20147.58334491 -.00023757 +00000-0 -57704-1 0  9996","TLE_LINE2":"2 44060 087.9171 338.7536 0001961 085.6497 091.6826 13.21828845060167"},{"CCSDS_OMM_VERS":"2.0","COMMENT":"GENERATED VIA SPACE-TRACK.ORG API","CREATION_DATE":"2020-05-27T02:00:23","ORIGINATOR":"18 SPCS","OBJECT_NAME":"ONEWEB-0007","OBJECT_ID":"2019-010D","CENTER_NAME":"EARTH","REF_FRAME":"TEME","TIME_SYSTEM":"UTC","MEAN_ELEMENT_THEORY":"SGP4","EPOCH":"2020-05-26T22:00:00.999936","MEAN_MOTION":"13.21790945","ECCENTRICITY":"0.00019660","INCLINATION":"87.9172","RA_OF_ASC_NODE":"338.6863","ARG_OF_PERICENTER":"84.4278","MEAN_ANOMALY":"238.1826","EPHEMERIS_TYPE":"0","CLASSIFICATION_TYPE":"U","NORAD_CAT_ID":"44060","ELEMENT_SET_NO":"999","REV_AT_EPOCH":"170","BSTAR":"0.10328000000000","MEAN_MOTION_DOT":"0.00042848","MEAN_MOTION_DDOT":"0.0000000000000","SEMIMAJOR_AXIS":"7556.023","PERIOD":"108.943","APOAPSIS":"1179.374","PERIAPSIS":"1176.403","OBJECT_TYPE":"PAYLOAD","RCS_SIZE":"LARGE","COUNTRY_CODE":"UK","LAUNCH_DATE":"2019-02-27","SITE":"FRGUI","DECAY_DATE":null,"FILE":"2754631","GP_ID":"154603867","TLE_LINE0":"0 ONEWEB-0007","TLE_LINE1":"1 44060U 19010D   20147.91667824 +.00042848 +00000-0 +10328+0 0  9991","TLE_LINE2":"2 44060 087.9172 338.6863 0001966 084.4278 238.1826 13.21790945001701"},{"CCSDS_OMM_VERS":"2.0","COMMENT":"GENERATED VIA SPACE-TRACK.ORG API","CREATION_DATE":"2020-05-27T17:46:09","ORIGINATOR":"18 SPCS","OBJECT_NAME":"ONEWEB-0007","OBJECT_ID":"2019-010D","CENTER_NAME":"EARTH","REF_FRAME":"TEME","TIME_SYSTEM":"UTC","MEAN_ELEMENT_THEORY":"SGP4","EPOCH":"2020-05-27T08:00:01.999872","MEAN_MOTION":"13.21794495","ECCENTRICITY":"0.00019810","INCLINATION":"87.9174","RA_OF_ASC_NODE":"338.6037","ARG_OF_PERICENTER":"85.3911","MEAN_ANOMALY":"58.8549","EPHEMERIS_TYPE":"0","CLASSIFICATION_TYPE":"U","NORAD_CAT_ID":"44060","ELEMENT_SET_NO":"999","REV_AT_EPOCH":"6026","BSTAR":"0.06677000000000","MEAN_MOTION_DOT":"0.00027661","MEAN_MOTION_DDOT":"0.0000000000000","SEMIMAJOR_AXIS":"7556.010","PERIOD":"108.942","APOAPSIS":"1179.372","PERIAPSIS":"1176.378","OBJECT_TYPE":"PAYLOAD","RCS_SIZE":"LARGE","COUNTRY_CODE":"UK","LAUNCH_DATE":"2019-02-27","SITE":"FRGUI","DECAY_DATE":null,"FILE":"2754891","GP_ID":"154611197","TLE_LINE0":"0 ONEWEB-0007","TLE_LINE1":"1 44060U 19010D   20148.33335648  .00027661  00000-0  66770-1 0  9994","TLE_LINE2":"2 44060  87.9174 338.6037 0001981  85.3911  58.8549 13.21794495 60266"},{"CCSDS_OMM_VERS":"2.0","COMMENT":"GENERATED VIA SPACE-TRACK.ORG API","CREATION_DATE":"2020-05-28T02:51:43","ORIGINATOR":"18 SPCS","OBJECT_NAME":"ONEWEB-0007","OBJECT_ID":"2019-010D","CENTER_NAME":"EARTH","REF_FRAME":"TEME","TIME_SYSTEM":"UTC","MEAN_ELEMENT_THEORY":"SGP4","EPOCH":"2020-05-27T20:00:01.000224","MEAN_MOTION":"13.21797221","ECCENTRICITY":"0.00019450","INCLINATION":"87.9176","RA_OF_ASC_NODE":"338.5029","ARG_OF_PERICENTER":"84.5893","MEAN_ANOMALY":"277.4970","EPHEMERIS_TYPE":"0","CLASSIFICATION_TYPE":"U","NORAD_CAT_ID":"44060","ELEMENT_SET_NO":"999","REV_AT_EPOCH":"170","BSTAR":"0.05913600000000","MEAN_MOTION_DOT":"0.00024492","MEAN_MOTION_DDOT":"0.0000000000000","SEMIMAJOR_AXIS":"7556.000","PERIOD":"108.942","APOAPSIS":"1179.334","PERIAPSIS":"1176.395","OBJECT_TYPE":"PAYLOAD","RCS_SIZE":"LARGE","COUNTRY_CODE":"UK","LAUNCH_DATE":"2019-02-27","SITE":"FRGUI","DECAY_DATE":null,"FILE":"2755049","GP_ID":"154653397","TLE_LINE0":"0 ONEWEB-0007","TLE_LINE1":"1 44060U 19010D   20148.83334491 +.00024492 +00000-0 +59136-1 0  9991","TLE_LINE2":"2 44060 087.9176 338.5029 0001945 084.5893 277.4970 13.21797221001709"},{"CCSDS_OMM_VERS":"2.0","COMMENT":"GENERATED VIA SPACE-TRACK.ORG API","CREATION_DATE":"2020-05-28T06:16:09","ORIGINATOR":"18 SPCS","OBJECT_NAME":"ONEWEB-0007","OBJECT_ID":"2019-010D","CENTER_NAME":"EARTH","REF_FRAME":"TEME","TIME_SYSTEM":"UTC","MEAN_ELEMENT_THEORY":"SGP4","EPOCH":"2020-05-28T06:00:00.999648","MEAN_MOTION":"13.21819393","ECCENTRICITY":"0.00020080","INCLINATION":"87.9179","RA_OF_ASC_NODE":"338.4203","ARG_OF_PERICENTER":"84.7533","MEAN_ANOMALY":"98.9072","EPHEMERIS_TYPE":"0","CLASSIFICATION_TYPE":"U","NORAD_CAT_ID":"44060","ELEMENT_SET_NO":"999","REV_AT_EPOCH":"6038","BSTAR":"-0.04669500000000","MEAN_MOTION_DOT":"-0.00019229","MEAN_MOTION_DDOT":"0.0000000000000","SEMIMAJOR_AXIS":"7555.915","PERIOD":"108.940","APOAPSIS":"1179.297","PERIAPSIS":"1176.263","OBJECT_TYPE":"PAYLOAD","RCS_SIZE":"LARGE","COUNTRY_CODE":"UK","LAUNCH_DATE":"2019-02-27","SITE":"FRGUI","DECAY_DATE":null,"FILE":"2755074","GP_ID":"154654982","TLE_LINE0":"0 ONEWEB-0007","TLE_LINE1":"1 44060U 19010D   20149.25001157 -.00019229  00000-0 -46695-1 0  9998","TLE_LINE2":"2 44060  87.9179 338.4203 0002008  84.7533  98.9072 13.21819393 60382"}]